[{"OBJECT_NAME":"STARLINK-5244","OBJECT_ID":"2022-141AU","EPOCH":"2026-03-09T04:34:39.014976","MEAN_MOTION":15.08852187,"ECCENTRICITY":0.00013737,"INCLINATION":53.2193,"RA_OF_ASC_NODE":356.2817,"ARG_OF_PERICENTER":81.6267,"MEAN_ANOMALY":278.4881,"EPHEMERIS_TYPE":0,"CLASSIFICATION_TYPE":"U","NORAD_CAT_ID":54199,"ELEMENT_SET_NO":999,"REV_AT_EPOCH":18592,"BSTAR":1.5310492e-5,"MEAN_MOTION_DOT":-4.4e-7,"MEAN_MOTION_DDOT":0},{"OBJECT_NAME":"FENGYUN 1C DEB","OBJECT_ID":"1999-025BNW","EPOCH":"2026-03-06T10:01:07.743936","MEAN_MOTION":15.11996262,"ECCENTRICITY":0.00143439,"INCLINATION":98.7438,"RA_OF_ASC_NODE":239.2093,"ARG_OF_PERICENTER":346.0612,"MEAN_ANOMALY":44.2284,"EPHEMERIS_TYPE":0,"CLASSIFICATION_TYPE":"U","NORAD_CAT_ID":31288,"ELEMENT_SET_NO":999,"REV_AT_EPOCH":98814,"BSTAR":0.0072973407,"MEAN_MOTION_DOT":0.00127645,"MEAN_MOTION_DDOT":0}]
